     2.10           G: GLONASS NAV DATA                     RINEX VERSION / TYPE
teqc  2015Jun23                         20220412 01:35:10UTCPGM / RUN BY / DATE
Linux 2.4.21-27.ELsmp|Opteron|gcc -static|Linux x86_64|=+   COMMENT
  2022     3    28   -1.396983861923D-09                    CORR TO SYSTEM TIME
                                                            END OF HEADER
 8 22  3 29 22 45  0.0-6.429944187403D-05-0.000000000000D+00 8.100000000000D+04
   -1.996978320312D+04 1.019038200378D+00-4.656612873077D-09 0.000000000000D+00
    1.291533154297D+04-7.573204040527D-01-1.862645149231D-09 6.000000000000D+00
   -9.128597656250D+03-3.280716896057D+00 0.000000000000D+00 0.000000000000D+00
12 22  3 29 22 45  0.0 1.764390617609D-05 0.000000000000D+00 8.100000000000D+04
   -1.904873046875D+03-3.517866134644D-01 0.000000000000D+00 0.000000000000D+00
    2.100122949219D+04-1.934561729431D+00-1.862645149231D-09-1.000000000000D+00
    1.435686425781D+04 2.788786888123D+00-1.862645149231D-09 0.000000000000D+00
23 22  3 29 22 45  0.0-3.529526293278D-05-9.094947017729D-13 8.100000000000D+04
   -3.938079589844D+03-3.046364784241D+00-1.862645149231D-09 0.000000000000D+00
    9.643309082031D+03-9.545955657959D-01-9.313225746155D-10 3.000000000000D+00
   -2.329210791016D+04 1.208543777466D-01 1.862645149231D-09 0.000000000000D+00
24 22  3 29 22 45  0.0 8.668098598719D-05 1.818989403546D-12 8.100000000000D+04
    1.185081689453D+04-2.396511077881D+00 1.862645149231D-09 0.000000000000D+00
    1.283650683594D+04-8.701324462891D-01-9.313225746155D-10 2.000000000000D+00
   -1.856845312500D+04-2.129663467407D+00 1.862645149231D-09 0.000000000000D+00
14 22  3 29 22 45  0.0 7.593259215355D-05 0.000000000000D+00 8.163000000000D+04
    1.228618115234D+04 6.785860061646D-01 1.862645149231D-09 0.000000000000D+00
    1.327146337891D+04 2.369215011597D+00-9.313225746155D-10-7.000000000000D+00
   -1.798876220703D+04 2.209251403809D+00 1.862645149231D-09 0.000000000000D+00
 2 22  3 29 23 15  0.0 5.140034481883D-04 9.094947017729D-13 8.280000000000D+04
   -3.246207031250D+03-1.503789901733D+00-0.000000000000D+00 0.000000000000D+00
    1.750657177734D+04 1.994787216187D+00-1.862645149231D-09-4.000000000000D+00
    1.828544824219D+04-2.187974929810D+00-1.862645149231D-09 0.000000000000D+00
 1 22  3 29 23 15  0.0 7.444992661476D-06 0.000000000000D+00 8.280000000000D+04
   -1.538733154297D+04 7.120800018311D-02-3.725290298462D-09 0.000000000000D+00
    2.034706738281D+04 1.503381729126D-01-1.862645149231D-09 1.000000000000D+00
    5.580478515625D+02-3.560617446899D+00-9.313225746155D-10 0.000000000000D+00
 8 22  3 29 23 15  0.0-6.430037319660D-05-0.000000000000D+00 8.280000000000D+04
   -1.778323730469D+04 1.366402626038D+00-4.656612873077D-09 0.000000000000D+00
    1.090248242188D+04-1.483148574829D+00-0.000000000000D+00 6.000000000000D+00
   -1.460271728516D+04-2.761845588684D+00 9.313225746155D-10 0.000000000000D+00
12 22  3 29 23 15  0.0 1.764483749866D-05 0.000000000000D+00 8.280000000000D+04
   -2.972475097656D+03-8.498020172119D-01-0.000000000000D+00 0.000000000000D+00
    1.704151269531D+04-2.420922279358D+00-1.862645149231D-09-1.000000000000D+00
    1.875714453125D+04 2.068777084351D+00-2.793967723846D-09 0.000000000000D+00
13 22  3 29 23 15  0.0-2.013705670834D-05-0.000000000000D+00 8.280000000000D+04
    7.199699707031D+03-1.088066101074D-01 9.313225746155D-10 0.000000000000D+00
    2.399402880859D+04-6.650791168213D-01-2.793967723846D-09-2.000000000000D+00
    4.780649414062D+03 3.487106323242D+00-0.000000000000D+00 0.000000000000D+00
14 22  3 29 23 15  0.0 7.593259215355D-05 0.000000000000D+00 8.280000000000D+04
    1.362954931641D+04 7.754650115967D-01 1.862645149231D-09 0.000000000000D+00
    1.692163476562D+04 1.661787986755D+00-1.862645149231D-09-7.000000000000D+00
   -1.336816015625D+04 2.891396522522D+00 1.862645149231D-09 0.000000000000D+00
24 22  3 29 23 15  0.0 8.668377995491D-05 1.818989403546D-12 8.280000000000D+04
    7.037672851562D+03-2.911462783813D+00 0.000000000000D+00 0.000000000000D+00
    1.150693359375D+04-5.770854949951D-01-9.313225746155D-10 2.000000000000D+00
   -2.163336035156D+04-1.253635406494D+00 2.793967723846D-09 0.000000000000D+00
 2 22  3 29 23 45  0.0 5.140053108335D-04 9.094947017729D-13 8.460000000000D+04
   -5.379987792969D+03-8.697443008423D-01-1.862645149231D-09 0.000000000000D+00
    2.083772705078D+04 1.659705162048D+00-1.862645149231D-09-4.000000000000D+00
    1.369181152344D+04-2.883164405823D+00-1.862645149231D-09 0.000000000000D+00
 1 22  3 29 23 45  0.0 7.445923984051D-06 0.000000000000D+00 8.460000000000D+04
   -1.481968164062D+04 5.228128433228D-01-4.656612873077D-09 0.000000000000D+00
    1.994585498047D+04-6.137285232544D-01-9.313225746155D-10 1.000000000000D+00
   -5.789874023438D+03-3.446855545044D+00-0.000000000000D+00 0.000000000000D+00
 8 22  3 29 23 45  0.0-6.430223584175D-05-0.000000000000D+00 8.460000000000D+04
   -1.521353369141D+04 1.443999290466D+00-4.656612873077D-09 0.000000000000D+00
    7.596367187500D+03-2.175050735474D+00 0.000000000000D+00 6.000000000000D+00
   -1.894171337891D+04-2.027672767639D+00 9.313225746155D-10 0.000000000000D+00
12 22  3 29 23 45  0.0 1.764483749866D-05 0.000000000000D+00 8.460000000000D+04
   -4.988129394531D+03-1.387413024902D+00-9.313225746155D-10 0.000000000000D+00
    1.245710156250D+04-2.623476028442D+00-9.313225746155D-10-1.000000000000D+00
    2.170868261719D+04 1.189540863037D+00-2.793967723846D-09 0.000000000000D+00
13 22  3 29 23 45  0.0-2.013891935349D-05-0.000000000000D+00 8.460000000000D+04
    6.574338867188D+03-6.128168106079D-01 0.000000000000D+00 0.000000000000D+00
    2.214694580078D+04-1.354798316956D+00-2.793967723846D-09-2.000000000000D+00
    1.079127490234D+04 3.147928237915D+00-9.313225746155D-10 0.000000000000D+00
14 22  3 29 23 45  0.0 7.593352347612D-05 0.000000000000D+00 8.460000000000D+04
    1.492935351562D+04 6.263189315796D-01 1.862645149231D-09 0.000000000000D+00
    1.919746972656D+04 8.607034683228D-01-2.793967723846D-09-7.000000000000D+00
   -7.714247070312D+03 3.349938392639D+00 9.313225746155D-10 0.000000000000D+00
24 22  3 29 23 45  0.0 8.668657392263D-05 1.818989403546D-12 8.460000000000D+04
    1.533596679688D+03-3.154387474060D+00-9.313225746155D-10 0.000000000000D+00
    1.084053320312D+04-1.489410400391D-01-0.000000000000D+00 2.000000000000D+00
   -2.302314306641D+04-2.805299758911D-01 2.793967723846D-09 0.000000000000D+00
23 22  3 29 23 45  0.0-3.529991954565D-05-9.094947017729D-13 8.475000000000D+04
   -1.457528222656D+04-2.656143188477D+00-4.656612873077D-09 0.000000000000D+00
    7.996666992188D+03 2.374935150146D-02 0.000000000000D+00 3.000000000000D+00
   -1.935011816406D+04 2.012273788452D+00 9.313225746155D-10 0.000000000000D+00
